CCSDS_OMM_VERS = 2.0
CREATION_DATE  = 
ORIGINATOR     = 

OBJECT_NAME    = SL-3 R/B
OBJECT_ID      = 1982-079B
CENTER_NAME    = EARTH
REF_FRAME      = TEME
TIME_SYSTEM    = UTC
MEAN_ELEMENT_THEORY = SGP/SGP4

EPOCH          = 2025-12-11T04:05:20.440608
MEAN_MOTION    = 15.23555840
ECCENTRICITY   = .0027098
INCLINATION    = 81.1468
RA_OF_ASC_NODE = 297.5107
ARG_OF_PERICENTER = 104.0281
MEAN_ANOMALY   = 256.3967

EPHEMERIS_TYPE = 0
CLASSIFICATION_TYPE = U
NORAD_CAT_ID   = 13403
ELEMENT_SET_NO = 999
REV_AT_EPOCH   = 36421
BSTAR          = .37342E-3
MEAN_MOTION_DOT = .9045E-4
MEAN_MOTION_DDOT = 0

CCSDS_OMM_VERS = 2.0
CREATION_DATE  = 
ORIGINATOR     = 

OBJECT_NAME    = SL-14 R/B
OBJECT_ID      = 1982-092B
CENTER_NAME    = EARTH
REF_FRAME      = TEME
TIME_SYSTEM    = UTC
MEAN_ELEMENT_THEORY = SGP/SGP4

EPOCH          = 2025-12-11T05:04:21.863424
MEAN_MOTION    = 14.86553111
ECCENTRICITY   = .0019072
INCLINATION    = 82.5685
RA_OF_ASC_NODE = 224.1412
ARG_OF_PERICENTER = 232.4587
MEAN_ANOMALY   = 251.1216

EPHEMERIS_TYPE = 0
CLASSIFICATION_TYPE = U
NORAD_CAT_ID   = 13553
ELEMENT_SET_NO = 999
REV_AT_EPOCH   = 31578
BSTAR          = .77197E-4
MEAN_MOTION_DOT = .71E-5
MEAN_MOTION_DDOT = 0

CCSDS_OMM_VERS = 2.0
CREATION_DATE  = 
ORIGINATOR     = 

OBJECT_NAME    = SL-3 R/B
OBJECT_ID      = 1983-010B
CENTER_NAME    = EARTH
REF_FRAME      = TEME
TIME_SYSTEM    = UTC
MEAN_ELEMENT_THEORY = SGP/SGP4

EPOCH          = 2025-12-11T02:04:26.797728
MEAN_MOTION    = 15.43383283
ECCENTRICITY   = .0017274
INCLINATION    = 81.1039
RA_OF_ASC_NODE = 110.6367
ARG_OF_PERICENTER = 356.8565
MEAN_ANOMALY   = 3.2566

EPHEMERIS_TYPE = 0
CLASSIFICATION_TYPE = U
NORAD_CAT_ID   = 13819
ELEMENT_SET_NO = 999
REV_AT_EPOCH   = 34426
BSTAR          = .4502E-3
MEAN_MOTION_DOT = .20257E-3
MEAN_MOTION_DDOT = 0

CCSDS_OMM_VERS = 2.0
CREATION_DATE  = 
ORIGINATOR     = 

OBJECT_NAME    = SL-3 R/B
OBJECT_ID      = 1983-075B
CENTER_NAME    = EARTH
REF_FRAME      = TEME
TIME_SYSTEM    = UTC
MEAN_ELEMENT_THEORY = SGP/SGP4

EPOCH          = 2025-12-11T03:48:35.879040
MEAN_MOTION    = 15.36081359
ECCENTRICITY   = .002256
INCLINATION    = 97.6110
RA_OF_ASC_NODE = 341.5889
ARG_OF_PERICENTER = 181.0015
MEAN_ANOMALY   = 179.1187

EPHEMERIS_TYPE = 0
CLASSIFICATION_TYPE = U
NORAD_CAT_ID   = 14208
ELEMENT_SET_NO = 999
REV_AT_EPOCH   = 31655
BSTAR          = .43165E-3
MEAN_MOTION_DOT = .15223E-3
MEAN_MOTION_DDOT = 0

CCSDS_OMM_VERS = 2.0
CREATION_DATE  = 
ORIGINATOR     = 

OBJECT_NAME    = COSMOS 1536
OBJECT_ID      = 1984-013A
CENTER_NAME    = EARTH
REF_FRAME      = TEME
TIME_SYSTEM    = UTC
MEAN_ELEMENT_THEORY = SGP/SGP4

EPOCH          = 2025-12-11T02:20:26.750976
MEAN_MOTION    = 15.22487544
ECCENTRICITY   = .0013402
INCLINATION    = 82.5454
RA_OF_ASC_NODE = 195.7928
ARG_OF_PERICENTER = 232.0484
MEAN_ANOMALY   = 127.9542

EPHEMERIS_TYPE = 0
CLASSIFICATION_TYPE = U
NORAD_CAT_ID   = 14699
ELEMENT_SET_NO = 999
REV_AT_EPOCH   = 25913
BSTAR          = .34841E-3
MEAN_MOTION_DOT = .812E-4
MEAN_MOTION_DDOT = 0

CCSDS_OMM_VERS = 2.0
CREATION_DATE  = 
ORIGINATOR     = 

OBJECT_NAME    = SL-14 R/B
OBJECT_ID      = 1984-027B
CENTER_NAME    = EARTH
REF_FRAME      = TEME
TIME_SYSTEM    = UTC
MEAN_ELEMENT_THEORY = SGP/SGP4

EPOCH          = 2025-12-11T05:00:29.835360
MEAN_MOTION    = 14.85871718
ECCENTRICITY   = .0016371
INCLINATION    = 82.5412
RA_OF_ASC_NODE = 327.9920
ARG_OF_PERICENTER = 266.3872
MEAN_ANOMALY   = 93.5472

EPHEMERIS_TYPE = 0
CLASSIFICATION_TYPE = U
NORAD_CAT_ID   = 14820
ELEMENT_SET_NO = 999
REV_AT_EPOCH   = 23449
BSTAR          = .91625E-4
MEAN_MOTION_DOT = .823E-5
MEAN_MOTION_DDOT = 0

CCSDS_OMM_VERS = 2.0
CREATION_DATE  = 
ORIGINATOR     = 

OBJECT_NAME    = SL-8 R/B
OBJECT_ID      = 1985-006B
CENTER_NAME    = EARTH
REF_FRAME      = TEME
TIME_SYSTEM    = UTC
MEAN_ELEMENT_THEORY = SGP/SGP4

EPOCH          = 2025-12-11T05:09:03.352032
MEAN_MOTION    = 14.37719821
ECCENTRICITY   = .0018618
INCLINATION    = 74.0467
RA_OF_ASC_NODE = 63.9409
ARG_OF_PERICENTER = 356.5450
MEAN_ANOMALY   = 33.9828

EPHEMERIS_TYPE = 0
CLASSIFICATION_TYPE = U
NORAD_CAT_ID   = 15483
ELEMENT_SET_NO = 999
REV_AT_EPOCH   = 14131
BSTAR          = .13851E-3
MEAN_MOTION_DOT = .391E-5
MEAN_MOTION_DDOT = 0

CCSDS_OMM_VERS = 2.0
CREATION_DATE  = 
ORIGINATOR     = 

OBJECT_NAME    = SL-12 R/B(2)
OBJECT_ID      = 1985-042D
CENTER_NAME    = EARTH
REF_FRAME      = TEME
TIME_SYSTEM    = UTC
MEAN_ELEMENT_THEORY = SGP/SGP4

EPOCH          = 2025-12-11T04:57:17.005248
MEAN_MOTION    = 14.21951245
ECCENTRICITY   = .0037643
INCLINATION    = 71.1086
RA_OF_ASC_NODE = 274.6590
ARG_OF_PERICENTER = 263.7500
MEAN_ANOMALY   = 199.1435

EPHEMERIS_TYPE = 0
CLASSIFICATION_TYPE = U
NORAD_CAT_ID   = 15772
ELEMENT_SET_NO = 999
REV_AT_EPOCH   = 10181
BSTAR          = .10733E-3
MEAN_MOTION_DOT = .191E-5
MEAN_MOTION_DDOT = 0

CCSDS_OMM_VERS = 2.0
CREATION_DATE  = 
ORIGINATOR     = 

OBJECT_NAME    = SL-14 R/B
OBJECT_ID      = 1985-069B
CENTER_NAME    = EARTH
REF_FRAME      = TEME
TIME_SYSTEM    = UTC
MEAN_ELEMENT_THEORY = SGP/SGP4

EPOCH          = 2025-12-11T02:03:29.143008
MEAN_MOTION    = 14.86321396
ECCENTRICITY   = .002007
INCLINATION    = 82.5266
RA_OF_ASC_NODE = 108.2577
ARG_OF_PERICENTER = 123.6082
MEAN_ANOMALY   = 236.7054

EPHEMERIS_TYPE = 0
CLASSIFICATION_TYPE = U
NORAD_CAT_ID   = 15945
ELEMENT_SET_NO = 999
REV_AT_EPOCH   = 15967
BSTAR          = .10461E-3
MEAN_MOTION_DOT = .949E-5
MEAN_MOTION_DDOT = 0

CCSDS_OMM_VERS = 2.0
CREATION_DATE  = 
ORIGINATOR     = 

OBJECT_NAME    = SL-16 R/B
OBJECT_ID      = 1985-097B
CENTER_NAME    = EARTH
REF_FRAME      = TEME
TIME_SYSTEM    = UTC
MEAN_ELEMENT_THEORY = SGP/SGP4

EPOCH          = 2025-12-11T05:11:18.650112
MEAN_MOTION    = 14.16583021
ECCENTRICITY   = .0006574
INCLINATION    = 71.0031
RA_OF_ASC_NODE = 326.8106
ARG_OF_PERICENTER = 13.4706
MEAN_ANOMALY   = 357.5644

EPHEMERIS_TYPE = 0
CLASSIFICATION_TYPE = U
NORAD_CAT_ID   = 16182
ELEMENT_SET_NO = 999
REV_AT_EPOCH   = 7470
BSTAR          = .15152E-3
MEAN_MOTION_DOT = .254E-5
MEAN_MOTION_DDOT = 0

CCSDS_OMM_VERS = 2.0
CREATION_DATE  = 
ORIGINATOR     = 

OBJECT_NAME    = SL-14 R/B
OBJECT_ID      = 1986-006B
CENTER_NAME    = EARTH
REF_FRAME      = TEME
TIME_SYSTEM    = UTC
MEAN_ELEMENT_THEORY = SGP/SGP4

EPOCH          = 2025-12-11T02:01:47.298144
MEAN_MOTION    = 14.86668411
ECCENTRICITY   = .0076027
INCLINATION    = 82.5264
RA_OF_ASC_NODE = 343.1087
ARG_OF_PERICENTER = 205.3516
MEAN_ANOMALY   = 154.3964

EPHEMERIS_TYPE = 0
CLASSIFICATION_TYPE = U
NORAD_CAT_ID   = 16496
ELEMENT_SET_NO = 999
REV_AT_EPOCH   = 13604
BSTAR          = .10284E-3
MEAN_MOTION_DOT = .989E-5
MEAN_MOTION_DDOT = 0

CCSDS_OMM_VERS = 2.0
CREATION_DATE  = 
ORIGINATOR     = 

OBJECT_NAME    = COSMOS 1743
OBJECT_ID      = 1986-034A
CENTER_NAME    = EARTH
REF_FRAME      = TEME
TIME_SYSTEM    = UTC
MEAN_ELEMENT_THEORY = SGP/SGP4

EPOCH          = 2025-12-10T23:28:32.098656
MEAN_MOTION    = 15.51995633
ECCENTRICITY   = .0004658
INCLINATION    = 82.5348
RA_OF_ASC_NODE = 166.4214
ARG_OF_PERICENTER = 261.1885
MEAN_ANOMALY   = 98.8840

EPHEMERIS_TYPE = 0
CLASSIFICATION_TYPE = U
NORAD_CAT_ID   = 16719
ELEMENT_SET_NO = 999
REV_AT_EPOCH   = 16646
BSTAR          = .60336E-3
MEAN_MOTION_DOT = .36435E-3
MEAN_MOTION_DDOT = 0

