SL-3 R/B                
1 13403U 82079B   25345.17037547  .00009045  00000+0  37342-3 0  9999
2 13403  81.1468 297.5107 0027098 104.0281 256.3967 15.23555840364216
SL-14 R/B               
1 13553U 82092B   25345.21136416  .00000710  00000+0  77197-4 0  9993
2 13553  82.5685 224.1412 0019072 232.4587 251.1216 14.86553111315786
SL-3 R/B                
1 13819U 83010B   25345.08642127  .00020257  00000+0  45020-3 0  9992
2 13819  81.1039 110.6367 0017274 356.8565   3.2566 15.43383283344260
SL-3 R/B                
1 14208U 83075B   25345.15874860  .00015223  00000+0  43165-3 0  9990
2 14208  97.6110 341.5889 0022560 181.0015 179.1187 15.36081359316555
COSMOS 1536             
1 14699U 84013A   25345.09753184  .00008120  00000+0  34841-3 0  9994
2 14699  82.5454 195.7928 0013402 232.0484 127.9542 15.22487544259135
SL-14 R/B               
1 14820U 84027B   25345.20867865  .00000823  00000+0  91625-4 0  9996
2 14820  82.5412 327.9920 0016371 266.3872  93.5472 14.85871718234495
SL-8 R/B                
1 15483U 85006B   25345.21462213  .00000391  00000+0  13851-3 0  9993
2 15483  74.0467  63.9409 0018618 356.5450  33.9828 14.37719821141310
SL-12 R/B(2)            
1 15772U 85042D   25345.20644682  .00000191  00000+0  10733-3 0  9999
2 15772  71.1086 274.6590 0037643 263.7500 199.1435 14.21951245101813
SL-14 R/B               
1 15945U 85069B   25345.08575397  .00000949  00000+0  10461-3 0  9991
2 15945  82.5266 108.2577 0020070 123.6082 236.7054 14.86321396159674
SL-16 R/B               
1 16182U 85097B   25345.21618808  .00000254  00000+0  15152-3 0  9997
2 16182  71.0031 326.8106 0006574  13.4706 357.5644 14.16583021 74704
SL-14 R/B               
1 16496U 86006B   25345.08457521  .00000989  00000+0  10284-3 0  9990
2 16496  82.5264 343.1087 0076027 205.3516 154.3964 14.86668411136046
COSMOS 1743             
1 16719U 86034A   25344.97814929  .00036435  00000+0  60336-3 0  9993
2 16719  82.5348 166.4214 0004658 261.1885  98.8840 15.51995633166461
